{
  "type": "FeatureCollection",
  "features": [
    {
      "type": "Feature",
      "properties": {
        "norad_id": 39227,
        "name": "ARIRANG-5 (KOMPSAT-5)",
        "group": "resource",
        "lat": 7.969846048294158,
        "lon": -175.66650687735364,
        "alt_km": 553.1404837195641,
        "timestamp": "2025-12-27T07:26:24.878011+00:00",
        "meta_object_name": "ARIRANG-5 (KOMPSAT-5)",
        "meta_object_id": "2013-042A",
        "meta_epoch": "2025-12-26T23:25:24.660768",
        "meta_mean_motion": 15.04493304,
        "meta_eccentricity": 0.00029551,
        "meta_inclination": 97.6168,
        "meta_ra_of_asc_node": 185.0778,
        "meta_arg_of_pericenter": 32.7012,
        "meta_mean_anomaly": 327.4396,
        "meta_ephemeris_type": 0,
        "meta_classification_type": "U",
        "meta_norad_cat_id": 39227,
        "meta_element_set_no": 999,
        "meta_rev_at_epoch": 67796,
        "meta_bstar": 0.00019417613,
        "meta_mean_motion_dot": 2.657e-05,
        "meta_mean_motion_ddot": 0,
        "tle_line1": "1 39227U 13042A   25360.97597987  .00002657  00000+0  19418-3 0  9995",
        "tle_line2": "2 39227  97.6168 185.0778 0002955  32.7012 327.4396 15.04493304677966"
      },
      "geometry": {
        "type": "Point",
        "coordinates": [
          -175.66650687735364,
          7.969846048294158
        ]
      }
    },
    {
      "type": "Feature",
      "properties": {
        "norad_id": 39418,
        "name": "SKYSAT-A",
        "group": "resource",
        "lat": 34.43119691996896,
        "lon": 45.95745682784277,
        "alt_km": 541.8283168540156,
        "timestamp": "2025-12-27T07:26:24.878022+00:00",
        "meta_object_name": "SKYSAT-A",
        "meta_object_id": "2013-066C",
        "meta_epoch": "2025-12-26T16:59:19.383072",
        "meta_mean_motion": 15.11703125,
        "meta_eccentricity": 0.00217778,
        "meta_inclination": 97.4086,
        "meta_ra_of_asc_node": 50.4912,
        "meta_arg_of_pericenter": 186.7849,
        "meta_mean_anomaly": 173.309,
        "meta_ephemeris_type": 0,
        "meta_classification_type": "U",
        "meta_norad_cat_id": 39418,
        "meta_element_set_no": 999,
        "meta_rev_at_epoch": 66241,
        "meta_bstar": 0.00022929716,
        "meta_mean_motion_dot": 3.862e-05,
        "meta_mean_motion_ddot": 0,
        "tle_line1": "1 39418U 13066C   25360.70786323  .00003862  00000+0  22930-3 0  9990",
        "tle_line2": "2 39418  97.4086  50.4912 0021777 186.7849 173.3090 15.11703125662417"
      },
      "geometry": {
        "type": "Point",
        "coordinates": [
          45.95745682784277,
          34.43119691996896
        ]
      }
    },
    {
      "type": "Feature",
      "properties": {
        "norad_id": 39419,
        "name": "DUBAISAT-2",
        "group": "resource",
        "lat": 7.864475029311247,
        "lon": -9.765723540815312,
        "alt_km": 544.4288184954285,
        "timestamp": "2025-12-27T07:26:24.878037+00:00",
        "meta_object_name": "DUBAISAT-2",
        "meta_object_id": "2013-066D",
        "meta_epoch": "2025-12-26T23:26:42.658368",
        "meta_mean_motion": 15.08492535,
        "meta_eccentricity": 0.00097304,
        "meta_inclination": 97.447,
        "meta_ra_of_asc_node": 350.9465,
        "meta_arg_of_pericenter": 265.0435,
        "meta_mean_anomaly": 94.9683,
        "meta_ephemeris_type": 0,
        "meta_classification_type": "U",
        "meta_norad_cat_id": 39419,
        "meta_element_set_no": 999,
        "meta_rev_at_epoch": 66041,
        "meta_bstar": 0.00022715817,
        "meta_mean_motion_dot": 3.483e-05,
        "meta_mean_motion_ddot": 0,
        "tle_line1": "1 39419U 13066D   25360.97688262  .00003483  00000+0  22716-3 0  9994",
        "tle_line2": "2 39419  97.4470 350.9465 0009730 265.0435  94.9683 15.08492535660413"
      },
      "geometry": {
        "type": "Point",
        "coordinates": [
          -9.765723540815312,
          7.864475029311247
        ]
      }
    },
    {
      "type": "Feature",
      "properties": {
        "norad_id": 39574,
        "name": "GPM-CORE",
        "group": "resource",
        "lat": -61.65023422316954,
        "lon": 103.90018774605254,
        "alt_km": 433.2176479257596,
        "timestamp": "2025-12-27T07:26:24.878047+00:00",
        "meta_object_name": "GPM-CORE",
        "meta_object_id": "2014-009C",
        "meta_epoch": "2025-12-26T22:26:47.926752",
        "meta_mean_motion": 15.4469316,
        "meta_eccentricity": 0.00090031,
        "meta_inclination": 64.9729,
        "meta_ra_of_asc_node": 165.1418,
        "meta_arg_of_pericenter": 251.8221,
        "meta_mean_anomaly": 108.194,
        "meta_ephemeris_type": 0,
        "meta_classification_type": "U",
        "meta_norad_cat_id": 39574,
        "meta_element_set_no": 999,
        "meta_rev_at_epoch": 67120,
        "meta_bstar": 0.00022809936,
        "meta_mean_motion_dot": 0.00010478,
        "meta_mean_motion_ddot": 0,
        "tle_line1": "1 39574U 14009C   25360.93527693  .00010478  00000+0  22810-3 0  9997",
        "tle_line2": "2 39574  64.9729 165.1418 0009003 251.8221 108.1940 15.44693160671204"
      },
      "geometry": {
        "type": "Point",
        "coordinates": [
          103.90018774605254,
          -61.65023422316954
        ]
      }
    },
    {
      "type": "Feature",
      "properties": {
        "norad_id": 39634,
        "name": "SENTINEL-1A",
        "group": "resource",
        "lat": -61.008353691665775,
        "lon": 21.382326570426564,
        "alt_km": 703.6612384274322,
        "timestamp": "2025-12-27T07:26:24.878057+00:00",
        "meta_object_name": "SENTINEL-1A",
        "meta_object_id": "2014-016A",
        "meta_epoch": "2025-12-26T23:29:44.952000",
        "meta_mean_motion": 14.59199519,
        "meta_eccentricity": 0.00012622,
        "meta_inclination": 98.1806,
        "meta_ra_of_asc_node": 6.0096,
        "meta_arg_of_pericenter": 85.8932,
        "meta_mean_anomaly": 274.2412,
        "meta_ephemeris_type": 0,
        "meta_classification_type": "U",
        "meta_norad_cat_id": 39634,
        "meta_element_set_no": 999,
        "meta_rev_at_epoch": 62490,
        "meta_bstar": -1.742087e-06,
        "meta_mean_motion_dot": -5.4e-07,
        "meta_mean_motion_ddot": 0,
        "tle_line1": "1 39634U 14016A   25360.97899250 -.00000054  00000+0 -17421-5 0  9992",
        "tle_line2": "2 39634  98.1806   6.0096 0001262  85.8932 274.2412 14.59199519624902"
      },
      "geometry": {
        "type": "Point",
        "coordinates": [
          21.382326570426564,
          -61.008353691665775
        ]
      }
    },
    {
      "type": "Feature",
      "properties": {
        "norad_id": 39731,
        "name": "KAZEOSAT 1",
        "group": "resource",
        "lat": 80.17069452246095,
        "lon": -49.245553403578064,
        "alt_km": 743.3675301914272,
        "timestamp": "2025-12-27T07:26:24.878067+00:00",
        "meta_object_name": "KAZEOSAT 1",
        "meta_object_id": "2014-024A",
        "meta_epoch": "2025-12-26T22:40:27.422976",
        "meta_mean_motion": 14.42070034,
        "meta_eccentricity": 0.00012487,
        "meta_inclination": 98.3412,
        "meta_ra_of_asc_node": 72.5321,
        "meta_arg_of_pericenter": 96.6729,
        "meta_mean_anomaly": 263.4603,
        "meta_ephemeris_type": 0,
        "meta_classification_type": "U",
        "meta_norad_cat_id": 39731,
        "meta_element_set_no": 999,
        "meta_rev_at_epoch": 61373,
        "meta_bstar": 5.5429008e-05,
        "meta_mean_motion_dot": 1.39e-06,
        "meta_mean_motion_ddot": 0,
        "tle_line1": "1 39731U 14024A   25360.94476184  .00000139  00000+0  55429-4 0  9994",
        "tle_line2": "2 39731  98.3412  72.5321 0001248  96.6729 263.4603 14.42070034613735"
      },
      "geometry": {
        "type": "Point",
        "coordinates": [
          -49.245553403578064,
          80.17069452246095
        ]
      }
    },
    {
      "type": "Feature",
      "properties": {
        "norad_id": 39766,
        "name": "ALOS-2",
        "group": "resource",
        "lat": 41.43061776024723,
        "lon": -76.9933531144569,
        "alt_km": 626.9413235465736,
        "timestamp": "2025-12-27T07:26:24.878077+00:00",
        "meta_object_name": "ALOS-2",
        "meta_object_id": "2014-029A",
        "meta_epoch": "2025-12-26T21:04:46.534368",
        "meta_mean_motion": 14.79473782,
        "meta_eccentricity": 0.00013773,
        "meta_inclination": 97.9215,
        "meta_ra_of_asc_node": 95.5225,
        "meta_arg_of_pericenter": 99.181,
        "meta_mean_anomaly": 260.9558,
        "meta_ephemeris_type": 0,
        "meta_classification_type": "U",
        "meta_norad_cat_id": 39766,
        "meta_element_set_no": 999,
        "meta_rev_at_epoch": 62610,
        "meta_bstar": 0.00017003388,
        "meta_mean_motion_dot": 1.219e-05,
        "meta_mean_motion_ddot": 0,
        "tle_line1": "1 39766U 14029A   25360.87831637  .00001219  00000+0  17003-3 0  9992",
        "tle_line2": "2 39766  97.9215  95.5225 0001377  99.1810 260.9558 14.79473782626102"
      },
      "geometry": {
        "type": "Point",
        "coordinates": [
          -76.9933531144569,
          41.43061776024723
        ]
      }
    }
  ]
}